[Satellite]
VERSION=1.1
NAME=COSMOS 1500
NICKNAME=COSMOS 1500
TLE1=1 14372U 83099A   22342.46977042  .00006831  00000+0  28760-3 0  9991
TLE2=2 14372  82.5117 162.2006 0013221 323.2373  36.7955 15.23114652141081
STATUS=0
